start=new Date('2023-05-28T00:00:00.000Z').valueOf();
sats=[{"MEAN_ELEMENT_THEORY":"SGP4","EPOCH":"2023-05-27T17:33:46.356192","SEMIMAJOR_AXIS":"6917.884","NORAD_CAT_ID":"54783","TLE_LINE2":"2 54783  53.2179 274.4027 0001033  88.8854 271.2256 15.08838696 26603","SITE":"AFETR","TLE_LINE1":"1 54783U 22175AB  23147.73178653  .00000033  00000-0  20132-4 0  9999","CENTER_NAME":"EARTH","ECCENTRICITY":"0.00010330","OBJECT_NAME":"STARLINK-5439","REF_FRAME":"TEME","MEAN_MOTION":"15.08838696","FILE":"3918755","RCS_SIZE":"LARGE","OBJECT_TYPE":"PAYLOAD","CLASSIFICATION_TYPE":"U","EPHEMERIS_TYPE":"0","REV_AT_EPOCH":"2660","MEAN_ANOMALY":"271.2256","APOAPSIS":"540.464","LAUNCH_DATE":"2022-12-17","MEAN_MOTION_DOT":"0.00000033","ELEMENT_SET_NO":"999","INCLINATION":"53.2179","RA_OF_ASC_NODE":"274.4027","DECAY_DATE":null,"MEAN_MOTION_DDOT":"0.0000000000000","BSTAR":"0.00002013200000","PERIAPSIS":"539.035","OBJECT_ID":"2022-175AB","COUNTRY_CODE":"US","TIME_SYSTEM":"UTC","ARG_OF_PERICENTER":"88.8854","PERIOD":"95.438","GP_ID":"232637229"},{"INCLINATION":"53.2162","RA_OF_ASC_NODE":"289.2619","REV_AT_EPOCH":"2639","MEAN_ANOMALY":"264.3986","APOAPSIS":"540.288","MEAN_MOTION_DOT":"0.00000666","LAUNCH_DATE":"2022-12-17","ELEMENT_SET_NO":"999","CLASSIFICATION_TYPE":"U","EPHEMERIS_TYPE":"0","OBJECT_TYPE":"PAYLOAD","PERIOD":"95.438","ARG_OF_PERICENTER":"95.7095","GP_ID":"232637979","COUNTRY_CODE":"US","TIME_SYSTEM":"UTC","PERIAPSIS":"539.203","OBJECT_ID":"2022-175AC","DECAY_DATE":null,"MEAN_MOTION_DDOT":"0.0000000000000","BSTAR":"0.00005990600000","SITE":"AFETR","SEMIMAJOR_AXIS":"6917.880","EPOCH":"2023-05-27T17:07:54.022944","NORAD_CAT_ID":"54784","TLE_LINE2":"2 54784  53.2162 289.2619 0000784  95.7095 264.3986 15.08839984 26393","MEAN_ELEMENT_THEORY":"SGP4","RCS_SIZE":"LARGE","REF_FRAME":"TEME","FILE":"3918755","MEAN_MOTION":"15.08839984","TLE_LINE1":"1 54784U 22175AC  23147.71381971  .00000666  00000-0  59906-4 0  9990","ECCENTRICITY":"0.00007840","CENTER_NAME":"EARTH","OBJECT_NAME":"STARLINK-5442"},{"RCS_SIZE":"LARGE","TLE_LINE1":"1 54785U 22175AD  23147.77732226 -.00108660  00000-0 -33652-2 0  9993","CENTER_NAME":"EARTH","ECCENTRICITY":"0.00007730","OBJECT_NAME":"STARLINK-5440","REF_FRAME":"TEME","MEAN_MOTION":"15.33317864","FILE":"3918755","SITE":"AFETR","MEAN_ELEMENT_THEORY":"SGP4","SEMIMAJOR_AXIS":"6844.058","EPOCH":"2023-05-27T18:39:20.643264","NORAD_CAT_ID":"54785","TLE_LINE2":"2 54785  53.2136 234.7572 0000773  87.9911 272.1181 15.33317864 27162","COUNTRY_CODE":"US","TIME_SYSTEM":"UTC","PERIOD":"93.914","ARG_OF_PERICENTER":"87.9911","GP_ID":"232636228","DECAY_DATE":null,"MEAN_MOTION_DDOT":"0.0000000000000","BSTAR":"-0.00336520000000","PERIAPSIS":"465.394","OBJECT_ID":"2022-175AD","REV_AT_EPOCH":"2716","MEAN_ANOMALY":"272.1181","APOAPSIS":"466.453","MEAN_MOTION_DOT":"-0.00108660","LAUNCH_DATE":"2022-12-17","ELEMENT_SET_NO":"999","INCLINATION":"53.2136","RA_OF_ASC_NODE":"234.7572","OBJECT_TYPE":"PAYLOAD","CLASSIFICATION_TYPE":"U","EPHEMERIS_TYPE":"0"},{"OBJECT_TYPE":"PAYLOAD","CLASSIFICATION_TYPE":"U","EPHEMERIS_TYPE":"0","MEAN_ANOMALY":"276.4752","REV_AT_EPOCH":"2661","LAUNCH_DATE":"2022-12-17","ELEMENT_SET_NO":"999","MEAN_MOTION_DOT":"-0.00001063","APOAPSIS":"540.450","INCLINATION":"53.2181","RA_OF_ASC_NODE":"274.0701","MEAN_MOTION_DDOT":"0.0000000000000","DECAY_DATE":null,"BSTAR":"-0.00004869300000","PERIAPSIS":"539.045","OBJECT_ID":"2022-175AE","COUNTRY_CODE":"US","TIME_SYSTEM":"UTC","GP_ID":"232636478","PERIOD":"95.438","ARG_OF_PERICENTER":"83.6355","MEAN_ELEMENT_THEORY":"SGP4","NORAD_CAT_ID":"54786","EPOCH":"2023-05-27T18:59:55.740768","SEMIMAJOR_AXIS":"6917.883","TLE_LINE2":"2 54786  53.2181 274.0701 0001015  83.6355 276.4752 15.08839298 26611","SITE":"AFETR","CENTER_NAME":"EARTH","ECCENTRICITY":"0.00010150","TLE_LINE1":"1 54786U 22175AE  23147.79161737 -.00001063  00000-0 -48693-4 0  9991","OBJECT_NAME":"STARLINK-5438","REF_FRAME":"TEME","FILE":"3918755","MEAN_MOTION":"15.08839298","RCS_SIZE":"LARGE"},{"RCS_SIZE":"LARGE","OBJECT_NAME":"STARLINK-5441","TLE_LINE1":"1 54787U 22175AF  23147.71013880  .00000363  00000-0  40862-4 0  9999","ECCENTRICITY":"0.00009400","CENTER_NAME":"EARTH","FILE":"3918755","MEAN_MOTION":"15.08837535","REF_FRAME":"TEME","SITE":"AFETR","MEAN_ELEMENT_THEORY":"SGP4","TLE_LINE2":"2 54787  53.2186 289.2407 0000940  87.5838 272.5262 15.08837535 26393","EPOCH":"2023-05-27T17:02:35.992320","SEMIMAJOR_AXIS":"6917.888","NORAD_CAT_ID":"54787","TIME_SYSTEM":"UTC","COUNTRY_CODE":"US","PERIOD":"95.438","ARG_OF_PERICENTER":"87.5838","GP_ID":"232637729","BSTAR":"0.00004086200000","DECAY_DATE":null,"MEAN_MOTION_DDOT":"0.0000000000000","OBJECT_ID":"2022-175AF","PERIAPSIS":"539.103","APOAPSIS":"540.403","ELEMENT_SET_NO":"999","LAUNCH_DATE":"2022-12-17","MEAN_MOTION_DOT":"0.00000363","REV_AT_EPOCH":"2639","MEAN_ANOMALY":"272.5262","INCLINATION":"53.2186","RA_OF_ASC_NODE":"289.2407","OBJECT_TYPE":"PAYLOAD","EPHEMERIS_TYPE":"0","CLASSIFICATION_TYPE":"U"},{"SITE":"AFETR","MEAN_ELEMENT_THEORY":"SGP4","EPOCH":"2023-05-27T15:42:28.249632","SEMIMAJOR_AXIS":"6917.889","NORAD_CAT_ID":"54788","TLE_LINE2":"2 54788  53.2183 274.6370 0000950  97.9982 262.1117 15.08837259 26593","RCS_SIZE":"LARGE","TLE_LINE1":"1 54788U 22175AG  23147.65449363  .00000007  00000-0  18517-4 0  9999","ECCENTRICITY":"0.00009500","CENTER_NAME":"EARTH","OBJECT_NAME":"STARLINK-5399","REF_FRAME":"TEME","MEAN_MOTION":"15.08837259","FILE":"3918755","REV_AT_EPOCH":"2659","MEAN_ANOMALY":"262.1117","APOAPSIS":"540.411","LAUNCH_DATE":"2022-12-17","MEAN_MOTION_DOT":"0.00000007","ELEMENT_SET_NO":"999","RA_OF_ASC_NODE":"274.6370","INCLINATION":"53.2183","OBJECT_TYPE":"PAYLOAD","CLASSIFICATION_TYPE":"U","EPHEMERIS_TYPE":"0","COUNTRY_CODE":"US","TIME_SYSTEM":"UTC","ARG_OF_PERICENTER":"97.9982","PERIOD":"95.438","GP_ID":"232637480","DECAY_DATE":null,"MEAN_MOTION_DDOT":"0.0000000000000","BSTAR":"0.00001851700000","PERIAPSIS":"539.097","OBJECT_ID":"2022-175AG"},{"RCS_SIZE":"LARGE","REF_FRAME":"TEME","MEAN_MOTION":"15.08838016","FILE":"3918755","ECCENTRICITY":"0.00008590","CENTER_NAME":"EARTH","TLE_LINE1":"1 54789U 22175AH  23147.58777747 -.00000638  00000-0 -22046-4 0  9996","OBJECT_NAME":"STARLINK-5446","SITE":"AFETR","NORAD_CAT_ID":"54789","SEMIMAJOR_AXIS":"6917.886","EPOCH":"2023-05-27T14:06:23.973408","TLE_LINE2":"2 54789  53.2180 259.8300 0000859  92.6069 267.5021 15.08838016 26792","MEAN_ELEMENT_THEORY":"SGP4","GP_ID":"232636728","ARG_OF_PERICENTER":"92.6069","PERIOD":"95.438","COUNTRY_CODE":"US","TIME_SYSTEM":"UTC","PERIAPSIS":"539.157","OBJECT_ID":"2022-175AH","MEAN_MOTION_DDOT":"0.0000000000000","DECAY_DATE":null,"BSTAR":"-0.00002204600000","RA_OF_ASC_NODE":"259.8300","INCLINATION":"53.2180","MEAN_ANOMALY":"267.5021","REV_AT_EPOCH":"2679","LAUNCH_DATE":"2022-12-17","MEAN_MOTION_DOT":"-0.00000638","ELEMENT_SET_NO":"999","APOAPSIS":"540.346","CLASSIFICATION_TYPE":"U","EPHEMERIS_TYPE":"0","OBJECT_TYPE":"PAYLOAD"},{"OBJECT_ID":"2022-175AJ","PERIAPSIS":"539.127","BSTAR":"-0.00002243000000","MEAN_MOTION_DDOT":"0.0000000000000","DECAY_DATE":null,"GP_ID":"232636978","ARG_OF_PERICENTER":"89.9841","PERIOD":"95.438","TIME_SYSTEM":"UTC","COUNTRY_CODE":"US","EPHEMERIS_TYPE":"0","CLASSIFICATION_TYPE":"U","OBJECT_TYPE":"PAYLOAD","RA_OF_ASC_NODE":"274.5914","INCLINATION":"53.2177","ELEMENT_SET_NO":"999","LAUNCH_DATE":"2022-12-17","MEAN_MOTION_DOT":"-0.00000645","APOAPSIS":"540.375","MEAN_ANOMALY":"270.1254","REV_AT_EPOCH":"2659","MEAN_MOTION":"15.08838315","FILE":"3918755","REF_FRAME":"TEME","OBJECT_NAME":"STARLINK-5445","CENTER_NAME":"EARTH","ECCENTRICITY":"0.00009020","TLE_LINE1":"1 54790U 22175AJ  23147.64712238 -.00000645  00000-0 -22430-4 0  9994","RCS_SIZE":"LARGE","TLE_LINE2":"2 54790  53.2177 274.5914 0000902  89.9841 270.1254 15.08838315 26599","NORAD_CAT_ID":"54790","SEMIMAJOR_AXIS":"6917.886","EPOCH":"2023-05-27T15:31:51.373632","MEAN_ELEMENT_THEORY":"SGP4","SITE":"AFETR"},{"INCLINATION":"53.2178","RA_OF_ASC_NODE":"274.0838","REV_AT_EPOCH":"2661","MEAN_ANOMALY":"279.5446","APOAPSIS":"540.173","LAUNCH_DATE":"2022-12-17","MEAN_MOTION_DOT":"-0.00001709","ELEMENT_SET_NO":"999","CLASSIFICATION_TYPE":"U","EPHEMERIS_TYPE":"0","OBJECT_TYPE":"PAYLOAD","PERIOD":"95.436","ARG_OF_PERICENTER":"80.5625","GP_ID":"232637230","COUNTRY_CODE":"US","TIME_SYSTEM":"UTC","PERIAPSIS":"539.211","OBJECT_ID":"2022-175AK","DECAY_DATE":null,"MEAN_MOTION_DDOT":"0.0000000000000","BSTAR":"-0.00008926000000","SITE":"AFETR","SEMIMAJOR_AXIS":"6917.827","EPOCH":"2023-05-27T19:03:50.463648","NORAD_CAT_ID":"54791","TLE_LINE2":"2 54791  53.2178 274.0838 0000695  80.5625 279.5446 15.08857395 26615","MEAN_ELEMENT_THEORY":"SGP4","RCS_SIZE":"LARGE","REF_FRAME":"TEME","FILE":"3918755","MEAN_MOTION":"15.08857395","TLE_LINE1":"1 54791U 22175AK  23147.79433407 -.00001709  00000-0 -89260-4 0  9995","ECCENTRICITY":"0.00006950","CENTER_NAME":"EARTH","OBJECT_NAME":"STARLINK-5425"},{"ARG_OF_PERICENTER":"88.4212","PERIOD":"95.438","GP_ID":"232637980","TIME_SYSTEM":"UTC","COUNTRY_CODE":"US","OBJECT_ID":"2022-175AL","PERIAPSIS":"539.094","BSTAR":"0.00005346300000","DECAY_DATE":null,"MEAN_MOTION_DDOT":"0.0000000000000","RA_OF_ASC_NODE":"289.1900","INCLINATION":"53.2189","APOAPSIS":"540.403","MEAN_MOTION_DOT":"0.00000563","LAUNCH_DATE":"2022-12-17","ELEMENT_SET_NO":"999","REV_AT_EPOCH":"2639","MEAN_ANOMALY":"271.6889","EPHEMERIS_TYPE":"0","CLASSIFICATION_TYPE":"U","OBJECT_TYPE":"PAYLOAD","RCS_SIZE":"LARGE","MEAN_MOTION":"15.08839122","FILE":"3918755","REF_FRAME":"TEME","OBJECT_NAME":"STARLINK-5431","TLE_LINE1":"1 54792U 22175AL  23147.70276712  .00000563  00000-0  53463-4 0  9992","CENTER_NAME":"EARTH","ECCENTRICITY":"0.00009460","SITE":"AFETR","TLE_LINE2":"2 54792  53.2189 289.1900 0000946  88.4212 271.6889 15.08839122 26390","EPOCH":"2023-05-27T16:51:59.079168","SEMIMAJOR_AXIS":"6917.883","NORAD_CAT_ID":"54792","MEAN_ELEMENT_THEORY":"SGP4"}];
